[{"OBJECT_NAME":"STARLINK-1278","OBJECT_ID":"2020-019BA","EPOCH":"2026-03-10T00:00:02.999808","MEAN_MOTION":15.56016323,"ECCENTRICITY":0.00019768,"INCLINATION":53.0445,"RA_OF_ASC_NODE":128.895,"ARG_OF_PERICENTER":44.2892,"MEAN_ANOMALY":100.8701,"EPHEMERIS_TYPE":0,"CLASSIFICATION_TYPE":"U","NORAD_CAT_ID":45408,"ELEMENT_SET_NO":999,"REV_AT_EPOCH":587,"BSTAR":0.0023716775,"MEAN_MOTION_DOT":0.00171237,"MEAN_MOTION_DDOT":0},{"OBJECT_NAME":"STARLINK-6063","OBJECT_ID":"2023-078AW","EPOCH":"2026-03-09T22:35:23.207712","MEAN_MOTION":15.58730037,"ECCENTRICITY":0.00035775,"INCLINATION":70.0007,"RA_OF_ASC_NODE":295.002,"ARG_OF_PERICENTER":255.2165,"MEAN_ANOMALY":104.8629,"EPHEMERIS_TYPE":0,"CLASSIFICATION_TYPE":"U","NORAD_CAT_ID":56811,"ELEMENT_SET_NO":999,"REV_AT_EPOCH":15392,"BSTAR":0.00025546943,"MEAN_MOTION_DOT":0.00019616,"MEAN_MOTION_DDOT":0}]
